NORAD_CAT_ID,OBJECT_NAME,OBJECT_TYPE,EPOCH,MEAN_MOTION,ECCENTRICITY,INCLINATION,RA_OF_ASC_NODE,ARG_OF_PERICENTER,MEAN_ANOMALY,BSTAR,MEAN_MOTION_DOT,MEAN_MOTION_DDOT,TLE_LINE0,TLE_LINE1,TLE_LINE2,SEMIMAJOR_AXIS,PERIOD,APOGEE,PERIGEE,DECAYED
52650.0,STARLINK-3891,PAYLOAD,2022-08-30 22:00:00,15.36909312,0.0001422,53.2174,266.8403,43.69,293.2258,-0.031674,-0.01065206,0.0,0 STARLINK-3891,1 52650U 22052BE  22242.91667824 -.01065206  00000-0 -31674-1 0  9998,2 52650  53.2174 266.8403 0001422  43.6900 293.2258 15.36909312  1306,6833.392,93.695,456.229,454.285,0.0
52650.0,STARLINK-3891,PAYLOAD,2022-08-31 14:00:01,15.3542095,0.0001846,53.2161,263.722,33.8334,31.8729,-0.034513,-0.01102794,0.0,0 STARLINK-3891,1 52650U 22052BE  22243.58334491 -.01102794  00000-0 -34513-1 0  9992,2 52650  53.2161 263.7220 0001846  33.8334  31.8729 15.35420950  1301,6837.807,93.785,460.935,458.41,0.0
52650.0,STARLINK-3891,PAYLOAD,2022-08-31 20:00:01,15.34822533,0.0001608,53.2175,262.5538,35.4041,332.6815,-0.033987,-0.0106826,0.0,0 STARLINK-3891,1 52650U 22052BE  22243.83334491 -.01068260  00000-0 -33987-1 0  9993,2 52650  53.2175 262.5538 0001608  35.4041 332.6815 15.34822533 17514,6839.585,93.822,462.549,460.35,0.0
52650.0,STARLINK-3891,PAYLOAD,2022-08-31 22:00:00,15.34659859,0.0001781999999999,53.2166,262.1634,33.4281,75.3165,-0.035374,-0.01102961,0.0,0 STARLINK-3891,1 52650U 22052BE  22243.91667824 -.01102961  00000-0 -35374-1 0  9990,2 52650  53.2166 262.1634 0001782  33.4281  75.3165 15.34659859  1302,6840.068,93.832,463.152,460.714,0.0
52650.0,STARLINK-3891,PAYLOAD,2022-09-01 12:00:00,15.33300433,0.0001761,53.2174,259.4465,37.0612,54.8131,-0.035463,-0.01062333,0.0,0 STARLINK-3891,1 52650U 22052BE  22244.50001157 -.01062333  00000-0 -35463-1 0  9994,2 52650  53.2174 259.4465 0001761  37.0612  54.8131 15.33300433 17613,6844.11,93.915,467.181,464.77,0.0
52650.0,STARLINK-3891,PAYLOAD,2022-09-01 14:00:01,15.33114104,0.0001771999999999,53.2172,259.058,42.2486,149.9054,-0.035882,-0.01068043,0.0,0 STARLINK-3891,1 52650U 22052BE  22244.58335648 -.01068043  00000-0 -35882-1 0  9996,2 52650  53.2172 259.0580 0001772  42.2486 149.9054 15.33114104  1301,6844.665,93.926,467.74300000000005,465.317,0.0
52650.0,STARLINK-3891,PAYLOAD,2022-09-01 22:00:00,15.32353144,0.0001679,53.2173,257.5049,43.958,188.431,-0.036679,-0.01065941,0.0,0 STARLINK-3891,1 52650U 22052BE  22244.91667824 -.01065941  00000-0 -36679-1 0  9996,2 52650  53.2173 257.5049 0001679  43.9580 188.4310 15.32353144  1305,6846.931,93.973,469.945,467.646,0.0
52650.0,STARLINK-3891,PAYLOAD,2022-09-02 04:00:00,15.31783584,0.0001836,53.2177,256.3435,40.5244,131.4881,-0.037339,-0.01065856,0.0,0 STARLINK-3891,1 52650U 22052BE  22245.16667824 -.01065856  00000-0 -37339-1 0  9993,2 52650  53.2177 256.3435 0001836  40.5244 131.4881 15.31783584 17717,6848.628000000002,94.008,471.75,469.235,0.0
52650.0,STARLINK-3891,PAYLOAD,2022-09-02 14:00:01,15.30865341,0.0001666999999999,53.216,254.4078,40.2705,269.9587,-0.0400639999999999,-0.01107299,0.0,0 STARLINK-3891,1 52650U 22052BE  22245.58334491 -.01107299  00000-0 -40064-1 0  9997,2 52650  53.2160 254.4078 0001667  40.2705 269.9587 15.30865341  1301,6851.366,94.064,474.37300000000016,472.089,0.0
52650.0,STARLINK-3891,PAYLOAD,2022-09-02 20:00:01,15.30263456,0.0001639,53.2175,253.2481,44.4104,204.0903,-0.039064,-0.01063419,0.0,0 STARLINK-3891,1 52650U 22052BE  22245.83334491 -.01063419  00000-0 -39064-1 0  9998,2 52650  53.2175 253.2481 0001639  44.4104 204.0903 15.30263456 17814,6853.163000000001,94.101,476.151,473.904,0.0
52650.0,STARLINK-3891,PAYLOAD,2022-09-02 22:00:01,15.30072808,0.0001544,53.2173,252.8615,39.973,307.8963,-0.039282,-0.01063034,0.0,0 STARLINK-3891,1 52650U 22052BE  22245.91668981 -.01063034  00000-0 -39282-1 0  9996,2 52650  53.2173 252.8615 0001544  39.9730 307.8963 15.30072808  1309,6853.732,94.113,476.655,474.539,0.0
52650.0,STARLINK-3891,PAYLOAD,2022-09-03 12:00:00,15.28744857,0.0001343,53.2173,250.1623,54.1852,267.1509,-0.0409389999999999,-0.01063133,0.0,0 STARLINK-3891,1 52650U 22052BE  22246.50001157 -.01063133  00000-0 -40939-1 0  9999,2 52650  53.2173 250.1623 0001343  54.1852 267.1509 15.28744857 17915,6857.7,94.195,480.486,478.644,0.0
52650.0,STARLINK-3891,PAYLOAD,2022-09-03 14:00:01,15.28581301,0.0001758,53.216,249.7753,35.9768,24.1953,-0.042683,-0.01099585,0.0,0 STARLINK-3891,1 52650U 22052BE  22246.58334491 -.01099585  00000-0 -42683-1 0  9995,2 52650  53.2160 249.7753 0001758  35.9768  24.1953 15.28581301  1305,6858.189,94.205,481.26,478.849,0.0
52650.0,STARLINK-3891,PAYLOAD,2022-09-03 22:00:00,15.27795651,0.0001715,53.2174,248.2342,39.259,55.74800000000001,-0.042238,-0.01065174,0.0,0 STARLINK-3891,1 52650U 22052BE  22246.91667824 -.01065174  00000-0 -42238-1 0  9994,2 52650  53.2174 248.2342 0001715  39.2590  55.7480 15.27795651  1300,6860.54,94.253,483.582,481.229,0.0
52650.0,STARLINK-3891,PAYLOAD,2022-09-04 04:00:00,15.272275,0.0001808,53.2177,247.0811,33.1815,357.341,-0.043046,-0.01066697,0.0,0 STARLINK-3891,1 52650U 22052BE  22247.16667824 -.01066697  00000-0 -43046-1 0  9991,2 52650  53.2177 247.0811 0001808  33.1815 357.3410 15.27227500 18021,6862.2419999999975,94.289,485.348,482.866,0.0
52650.0,STARLINK-3891,PAYLOAD,2022-09-04 14:00:01,15.26277191,0.0001587,53.2172,245.1597,52.6364,109.3375,-0.044232,-0.01064878,0.0,0 STARLINK-3891,1 52650U 22052BE  22247.58335648 -.01064878  00000-0 -44232-1 0  9990,2 52650  53.2172 245.1597 0001587  52.6364 109.3375 15.26277191  1303,6865.09,94.347,488.044,485.865,0.0
52650.0,STARLINK-3891,PAYLOAD,2022-09-04 20:00:01,15.25706017,0.0001696,53.2174,244.0069,39.4821,56.5777,-0.0449139999999999,-0.01062904,0.0,0 STARLINK-3891,1 52650U 22052BE  22247.83334491 -.01062904  00000-0 -44914-1 0  9998,2 52650  53.2174 244.0069 0001696  39.4821  56.5777 15.25706017  1301,6866.803000000001,94.383,489.833,487.504,0.0
52650.0,STARLINK-3891,PAYLOAD,2022-09-05 04:00:00,15.24947178,0.0001911,53.2175,242.474,37.1006,90.3571,-0.045997,-0.01063803,0.0,0 STARLINK-3891,1 52650U 22052BE  22248.16667824 -.01063803  00000-0 -45997-1 0  9995,2 52650  53.2175 242.4740 0001911  37.1006  90.3571 15.24947178 18175,6869.081,94.43,492.259,489.633,0.0
52650.0,STARLINK-3891,PAYLOAD,2022-09-05 14:00:01,15.23999948,0.0001506999999999,53.2172,240.5593,55.1526,200.2692,-0.047493,-0.01067143,0.0,0 STARLINK-3891,1 52650U 22052BE  22248.58334491 -.01067143  00000-0 -47493-1 0  9996,2 52650  53.2172 240.5593 0001507  55.1526 200.2692 15.23999948  1309,6871.927,94.488,494.828,492.756,0.0
52650.0,STARLINK-3891,PAYLOAD,2022-09-05 20:00:01,15.23427891,0.0001746,53.2173,239.4104,44.3915,143.1264,-0.048108,-0.01063017,0.0,0 STARLINK-3891,1 52650U 22052BE  22248.83334491 -.01063017  00000-0 -48108-1 0  9994,2 52650  53.2173 239.4104 0001746  44.3915 143.1264 15.23427891 18279,6873.647,94.524,496.712,494.312,0.0
52650.0,STARLINK-3891,PAYLOAD,2022-09-05 22:00:00,15.23237844,0.0001594,53.2174,239.0278,46.4744,238.2945,-0.0483839999999999,-0.01063026,0.0,0 STARLINK-3891,1 52650U 22052BE  22248.91667824 -.01063026  00000-0 -48384-1 0  9998,2 52650  53.2174 239.0278 0001594  46.4744 238.2945 15.23237844  1307,6874.219,94.535,497.18,494.98800000000006,0.0
52650.0,STARLINK-3891,PAYLOAD,2022-09-06 12:00:00,15.21910749,0.0001488,53.2172,236.3567,58.3761,185.5489,-0.050455,-0.0106537,0.0,0 STARLINK-3891,1 52650U 22052BE  22249.50001157 -.01065370  00000-0 -50455-1 0  9991,2 52650  53.2172 236.3567 0001488  58.3761 185.5489 15.21910749 18371,6878.215,94.618,501.103,499.056,0.0
52650.0,STARLINK-3891,PAYLOAD,2022-09-06 14:00:01,15.21730346,0.0001662,53.2163,235.9738,40.1604,300.5557,-0.051471,-0.01079749,0.0,0 STARLINK-3891,1 52650U 22052BE  22249.58334491 -.01079749  00000-0 -51471-1 0  9993,2 52650  53.2163 235.9738 0001662  40.1604 300.5557 15.21730346  1308,6878.7580000000025,94.629,501.766,499.48,0.0
52650.0,STARLINK-3891,PAYLOAD,2022-09-06 22:00:00,15.20958224,0.0001593,53.2174,234.4489,41.599,325.73,-0.0516519999999999,-0.01060798,0.0,0 STARLINK-3891,1 52650U 22052BE  22249.91667824 -.01060798  00000-0 -51652-1 0  9994,2 52650  53.2174 234.4489 0001593  41.5990 325.7300 15.20958224  1304,6881.0859999999975,94.677,504.047,501.855,0.0
52650.0,STARLINK-3891,PAYLOAD,2022-09-07 12:00:00,15.1963294,0.0001424,53.2171,231.7868,51.2798,270.4134,-0.054007,-0.01066292,0.0,0 STARLINK-3891,1 52650U 22052BE  22250.50001157 -.01066292  00000-0 -54007-1 0  9994,2 52650  53.2171 231.7868 0001424  51.2798 270.4134 15.19632940 18524,6885.0859999999975,94.76,507.932,505.971,0.0
52650.0,STARLINK-3891,PAYLOAD,2022-09-07 14:00:01,15.19441524,0.0001504,53.2173,231.4062,47.6767,10.1276,-0.0542049999999999,-0.01064415,0.0,0 STARLINK-3891,1 52650U 22052BE  22250.58334491 -.01064415  00000-0 -54205-1 0  9997,2 52650  53.2173 231.4062 0001504  47.6767  10.1276 15.19441524  1303,6885.6640000000025,94.772,508.565,506.494,0.0
52650.0,STARLINK-3891,PAYLOAD,2022-09-07 22:00:00,15.18680355,0.0001723,53.2174,229.8856,41.4665,40.2082,-0.0552429999999999,-0.01061314,0.0,0 STARLINK-3891,1 52650U 22052BE  22250.91667824 -.01061314  00000-0 -55243-1 0  9991,2 52650  53.2174 229.8856 0001723  41.4665  40.2082 15.18680355  1303,6887.965,94.819,511.017,508.643,0.0
52650.0,STARLINK-3891,PAYLOAD,2022-09-08 14:00:01,15.17162129,0.000169,53.2173,226.8536,46.5519,80.1226,-0.057802,-0.01076062,0.0,0 STARLINK-3891,1 52650U 22052BE  22251.58334491 -.01076062  00000-0 -57802-1 0  9995,2 52650  53.2173 226.8536 0001690  46.5519  80.1226 15.17162129  1307,6892.559,94.914,515.589,513.259,0.0
52650.0,STARLINK-3891,PAYLOAD,2022-09-08 20:00:01,15.16590383,0.0001648,53.2173,225.7168,40.4106,12.1994,-0.058584,-0.01073051,0.0,0 STARLINK-3891,1 52650U 22052BE  22251.83334491 -.01073051  00000-0 -58584-1 0  9996,2 52650  53.2173 225.7168 0001648  40.4106  12.1994 15.16590383 18732,6894.292,94.95,517.293,515.02,0.0
